245P/WISE,e,21.1873,316.6681,316.8478,4.047775,0.1210262,0.45605907,223.6857,03/01.0/2023,2000,g 14.0,4.0
# From MPEC 2023-A50
246P/NEAT,e,16.0242,77.8604,177.9171,4.040753,0.1213419,0.29029659,88.8041,03/01.0/2023,2000,g 10.5,4.0
# From MPEC 2021-F20
247P/LINEAR,e,13.6592,54.0305,47.4035,3.967180,0.1247330,0.62477412,193.4042,03/01.0/2023,2000,g 16.5,2.0
# From MPC 75730
248P/Gibbs,e,6.3512,207.8126,209.8729,5.989434,0.0672396,0.63916191,297.5382,03/01.0/2023,2000,g 14.0,4.0
# From MPEC 2022-YN2
249P/LINEAR,e,8.3863,239.0744,65.7407,2.763753,0.2145138,0.81965005,209.0698,03/01.0/2023,2000,g 15.5,4.0
# From MPC110497
250P/Larson,e,13.1509,73.3544,46.0810,3.769146,0.1346913,0.39888316,251.0643,03/01.0/2023,2000,g 14.5,4.0
# From MPC104795
251P/LINEAR,e,23.3863,219.3442,31.2507,3.513200,0.1496751,0.50448386,307.7229,03/01.0/2023,2000,g 16.5,2.0
# From MPEC 2021-S45
252P/LINEAR,e,10.4138,190.9132,343.3985,3.051050,0.1849396,0.67116601,110.5984,03/01.0/2023,2000,g 17.5,4.0
# From MPEC 2020-FB5
253P/PANSTARRS,e,4.9434,146.8771,230.7254,3.464157,0.1528649,0.41458727,268.3074,03/01.0/2023,2000,g 14.5,4.0
# From MPEC 2023-BF4
254P/McNaught,e,32.5644,129.1858,219.6713,4.616111,0.0993779,0.31961385,87.6155,03/01.0/2023,2000,g 11.0,4.0
# From MPEC 2021-UA9
255P/Levy,e,13.4113,275.6602,186.0127,2.942175,0.1952996,0.71155284,34.1190,03/01.0/2023,2000,g 14.1,4.0
# From MPEC 2023-D72
256P/LINEAR,e,27.6192,81.3302,124.1931,4.639634,0.0986231,0.41798928,358.8921,03/01.0/2023,2000,g 14.0,2.0
# From MPEC 2023-A50
257P/Catalina,e,20.2197,207.7148,117.7678,3.764483,0.1349417,0.42993830,121.6393,03/01.0/2023,2000,g 11.5,4.0
# From MPEC 2021-U31
258P/PANSTARRS,e,6.7472,126.2359,25.7388,4.393749,0.1070166,0.20849127,105.5875,03/01.0/2023,2000,g 13.0,4.0
# From MPC106349
259P/Garradd,e,15.8968,51.4315,257.5444,2.729422,0.2185738,0.33886434,84.3295,03/01.0/2023,2000,g 15.5,4.0
# From MPEC 2022-O01
260P/McNaught,e,15.0554,349.3353,18.4508,3.623314,0.1429043,0.60934308,181.0735,03/01.0/2023,2000,g 13.5,4.0
# From MPEC 2021-J28
261P/Larson,e,6.0720,291.1061,67.2759,3.490496,0.1511379,0.42331014,204.0607,03/01.0/2023,2000,g 14.0,4.0
# From MPC 82322
262P/McNaught-Russell,e,29.2929,217.8630,171.0612,6.871369,0.0547191,0.81633071,204.4538,03/01.0/2023,2000,g 13.5,4.0
# From MPEC 2023-D72
263P/Gibbs,e,11.5217,105.5098,35.0444,3.041769,0.1857868,0.59355889,5.4650,03/01.0/2023,2000,g 18.0,4.0
# From MPC114608
264P/Larsen,e,25.5567,220.0221,346.6781,3.882290,0.1288464,0.37682248,168.3909,03/01.0/2023,2000,g 13.0,4.0
# From MPC 79870
265P/LINEAR,e,14.3615,342.9269,33.4926,4.256784,0.1122230,0.64760563,84.1436,03/01.0/2023,2000,g 14.5,4.0
# From MPEC 2021-F20
266P/Christensen,e,3.4269,4.9903,97.6710,3.531170,0.1485341,0.34001526,155.3039,03/01.0/2023,2000,g 14.7,4.0
# From MPC114608
267P/LONEOS,e,6.1439,228.5662,114.2448,3.210486,0.1713357,0.61436607,287.9089,03/01.0/2023,2000,g 19.5,4.0
# From MPC 92277
268P/Bernardi,e,15.6941,126.2831,359.8208,4.587544,0.1003076,0.47688710,293.9185,03/01.0/2023,2000,g 14.0,4.0
# From MPC104795
269P/Jedicke,e,7.0815,241.7511,225.6855,7.067723,0.0524547,0.43174925,161.2213,03/01.0/2023,2000,g 10.0,4.0
# From MPC 88332
270P/Gehrels,e,2.9245,223.0380,209.7658,6.657870,0.0573721,0.46916879,203.6136,03/01.0/2023,2000,g  8.0,4.0
# From MPC 92277
271P/van Houten-Lemmon,e,6.8719,9.3156,36.4302,7.035621,0.0528142,0.39580180,185.4661,03/01.0/2023,2000,g 11.0,4.0
# From MPEC 2023-D41
272P/NEAT,e,18.0728,109.4628,27.8924,4.461667,0.1045823,0.45489524,23.7375,03/01.0/2023,2000,g 16.0,2.0
# From MPC 82723
273P/Pons-Gambart,e,136.6677,320.3927,20.2926,31.98169,0.0054494,0.97438450,0.0000,12/21.8601/2012,2000,g 11.5,4.0
# From MPEC 2023-C45
274P/Tombaugh-Tenagra,e,15.8156,81.3283,38.4723,4.377324,0.1076195,0.43962172,35.1412,03/01.0/2023,2000,g 13.0,4.0
# From MPC 81862
275P/Hermann,e,21.2696,348.7532,173.9464,5.780418,0.0709194,0.71298058,265.0488,03/01.0/2023,2000,g 17.0,4.0
# From MPEC 2023-A50
276P/Vorobjov,e,14.8113,211.3459,199.4761,5.326286,0.0801802,0.26811716,307.6700,03/01.0/2023,2000,g 11.5,4.0
# From MPEC 2021-F20
277P/LINEAR,e,16.7796,276.3011,152.3390,3.853472,0.1302944,0.50619095,103.0063,03/01.0/2023,2000,g 15.1,4.0
# From MPEC 2021-S45
278P/McNaught,e,6.6959,15.3794,237.5825,3.681606,0.1395237,0.43702137,125.6291,03/01.0/2023,2000,g 14.0,4.0
# From MPEC 2022-K19
279P/LaSagra,e,5.0523,346.2331,5.8586,3.573738,0.1458881,0.39891773,352.7665,03/01.0/2023,2000,g 14.0,4.0
# From MPEC 2022-K19
280P/Larsen,e,11.7722,131.3873,104.7287,4.530081,0.1022222,0.41719794,343.9853,03/01.0/2023,2000,g 12.5,4.0
# From MPEC 2023-D41
281P/MOSS,e,4.7181,87.1784,26.6394,4.878070,0.0914812,0.17293948,2.5243,03/01.0/2023,2000,g 11.0,4.0
# From MPC133426
282P/,e,5.8117,9.2956,217.6096,4.238016,0.1129692,0.18801417,55.6465,03/01.0/2023,2000,g 13.5,2.0
# From MPEC 2022-K19
283P/Spacewatch,e,14.4557,161.1269,22.2126,4.135274,0.1172054,0.48442608,63.1911,03/01.0/2023,2000,g 16.0,2.0
# From MPEC 2023-D41
284P/McNaught,e,11.8609,144.2636,202.4364,3.676266,0.1398279,0.37532695,74.7291,03/01.0/2023,2000,g 13.0,4.0
# From MPEC 2023-B57
285P/LINEAR,e,25.0381,185.5069,178.4157,4.510668,0.1028828,0.61883105,4.9112,03/01.0/2023,2000,g 15.0,4.0
# From MPEC 2022-X67
286P/Christensen,e,17.0395,283.8703,24.9119,4.114506,0.1180939,0.42634954,34.5271,03/01.0/2023,2000,g 14.0,4.0
# From MPEC 2023-A50
287P/Christensen,e,16.3217,139.0429,189.1201,4.163543,0.1160138,0.27124538,345.2605,03/01.0/2023,2000,g 13.5,4.0
# From MPC133426
288P/,e,3.2384,83.1233,280.2058,3.048196,0.1851995,0.20050560,67.4790,03/01.0/2023,2000,g 16.0,2.0
# From MPEC 2022-K19
289P/Blanpain,e,5.8992,68.8874,9.8400,3.045385,0.1854560,0.68607773,216.1845,03/01.0/2023,2000,g 19.0,4.0
# From MPC 95214
290P/Jager,e,20.0334,302.6669,181.8456,6.217248,0.0635780,0.62727973,211.3813,03/01.0/2023,2000,g 10.5,4.0
# From MPEC 2023-CD7
291P/NEAT,e,6.3072,237.6621,173.5319,4.541227,0.1018461,0.43512396,353.4672,03/01.0/2023,2000,g 13.0,4.0
# From MPEC 2022-K19
292P/Li,e,24.2950,90.9222,319.5394,6.101626,0.0653937,0.58965668,216.5517,03/01.0/2023,2000,g 12.5,4.0
# From MPEC 2022-L66
293P/Spacewatch,e,9.0603,78.3985,40.9437,3.640694,0.1418822,0.41850219,113.7668,03/01.0/2023,2000,g 14.5,4.0
# From MPEC 2020-SI8
294P/LINEAR,e,17.8137,310.9900,236.4656,3.186321,0.1732885,0.60356346,205.1627,03/01.0/2023,2000,g 15.5,4.0
# From MPEC 2022-K19
295P/LINEAR,e,21.0743,7.4339,72.8927,5.304711,0.0806699,0.61711788,259.9599,03/01.0/2023,2000,g 12.0,4.0
# From MPEC 2021-N06
296P/Garradd,e,25.2488,263.5514,349.9831,3.491780,0.1510545,0.47890097,135.1351,03/01.0/2023,2000,g 14.0,4.0
# From MPC102956
297P/Beshore,e,10.2987,96.4199,134.8833,3.466423,0.1527150,0.32119896,116.3829,03/01.0/2023,2000,g 15.0,4.0
# From MPC114609
298P/Christensen,e,7.8706,52.8194,100.6211,3.590040,0.1448956,0.38624565,131.2990,03/01.0/2023,2000,g 15.0,4.0
# From MPEC 2023-D72
299P/Catalina-PANSTARRS,e,10.4674,271.6004,323.7547,4.388445,0.1072107,0.28091843,314.2475,03/01.0/2023,2000,g 11.5,4.0
# From MPEC 2022-ED3
300P/Catalina,e,5.6741,95.6242,222.9525,2.698578,0.2223318,0.69166278,350.8594,03/01.0/2023,2000,g 16.0,4.0
# From MPC 89014
301P/LINEAR-NEAT,e,10.3377,351.1694,193.5460,5.741077,0.0716496,0.58548075,223.2355,03/01.0/2023,2000,g 13.0,4.0
# From MPEC 2022-K19
302P/Lemmon-PANSTARRS,e,6.0335,121.7305,208.4915,4.272827,0.1115915,0.23022618,277.5782,03/01.0/2023,2000,g 12.5,4.0
# From MPC 92278
303P/NEAT,e,7.0198,347.9641,356.9899,5.043567,0.0870157,0.51087885,265.4730,03/01.0/2023,2000,g 13.5,4.0
# From MPEC 2022-K19
304P/Ory,e,2.6074,58.9079,335.2669,3.150696,0.1762359,0.60095360,163.9032,03/01.0/2023,2000,g 16.5,4.0
# From MPC101100
305P/Skiff,e,11.6682,240.1026,147.3735,4.639742,0.0986196,0.69399025,298.1566,03/01.0/2023,2000,g 18.0,4.0
# From MPC 92278
306P/LINEAR,e,8.3085,341.3730,0.8884,3.124172,0.1784850,0.59311241,202.1786,03/01.0/2023,2000,g 19.0,4.0
# From MPC 92278
307P/LINEAR,e,4.4352,158.1625,222.1695,5.789385,0.0707547,0.67555379,211.3430,03/01.0/2023,2000,g 15.0,4.0
# From MPEC 2022-C56
308P/Lagerkvist-Carsenty,e,4.8546,63.0398,333.6751,6.599722,0.0581320,0.36462425,165.7048,03/01.0/2023,2000,g 13.0,2.0
# From MPC 94284
309P/LINEAR,e,17.0239,10.1445,49.9443,4.373189,0.1077722,0.61821885,317.5284,03/01.0/2023,2000,g 15.0,4.0
# From MPEC 2022-QD9
310P/Hill,e,13.1278,8.9210,31.7136,4.183940,0.1151664,0.42253390,332.7032,03/01.0/2023,2000,g 13.5,4.0
# From MPEC 2021-BE3
311P/PANSTARRS,e,4.9700,279.2118,144.4920,2.188224,0.3044853,0.11591208,266.3403,03/01.0/2023,2000,g 17.0,4.0
# From MPEC 2021-BE3
312P/NEAT,e,19.7628,144.6709,207.6603,3.469736,0.1524963,0.42766802,135.2326,03/01.0/2023,2000,g 16.0,4.0
# From MPEC 2021-S45
313P/Gibbs,e,10.9788,105.9523,254.8658,3.164099,0.1751173,0.23494083,183.6687,03/01.0/2023,2000,g 15.0,4.0
# From MPC105243
314P/Montani,e,3.9865,267.6069,213.9160,7.257191,0.0504140,0.41687371,117.7262,03/01.0/2023,2000,g  9.5,4.0
# From MPEC 2021-N06
315P/LONEOS,e,17.7350,68.7634,65.7449,4.939931,0.0897682,0.52106420,205.3236,03/01.0/2023,2000,g 11.0,4.0
# From MPC 92279
316P/LONEOS-Christensen,e,9.8279,246.2230,191.6040,4.387749,0.1072362,0.15607492,293.8181,03/01.0/2023,2000,g 13.5,4.0
# From MPEC 2020-C98
317P/WISE,e,11.9542,275.4812,334.8299,2.962306,0.1933122,0.57060728,171.3086,03/01.0/2023,2000,g 17.5,4.0
# From MPC102103
318P/McNaught-Hartley,e,17.8891,35.5034,313.3395,7.505324,0.0479347,0.67500929,128.5964,03/01.0/2023,2000,g  8.5,6.0
# From MPC 97499
319P/Catalina-McNaught,e,15.0955,111.3614,203.6611,3.565004,0.1464246,0.66653632,48.9953,03/01.0/2023,2000,g 15.0,4.0
# From MPC 96281
320P/McNaught,e,4.9051,295.9479,0.7852,3.094376,0.1810692,0.68520510,139.9908,03/01.0/2023,2000,g 20.5,4.0
# From MPC105243
321P/SOHO,e,20.0828,165.0181,172.7463,2.423103,0.2613040,0.98107901,0.0000,10/26.6024/2023,2000,g 20.0,4.0
# From MPC102103
322P/SOHO,e,11.4653,351.5009,56.9114,2.507483,0.2482260,0.97997487,0.0000,08/21.0855/2023,2000,g 19.0,4.0
# From MPEC 2016-Y36
